[
    {
        "Altitude(m)": 553508.5342941269,
        "Argument of Periapsis(deg)": 0.026491964442854003,
        "Eccentricity": 0.0,
        "Inclination(deg)": 53.0,
        "Latitude(deg)": 14.130275776915699,
        "Longitude(deg)": -34.05895446328339,
        "Mean Anomaly(deg)": -197.81532852968965,
        "RAAN(deg)": 259.96057347411204,
        "Satellite Name": "Starlink Shell 1 1151",
        "Satellite Number": 1151,
        "Semi-Major Axis(m)": 6931778.249405717,
        "Time(s)": 760
    },
    {
        "Altitude(m)": 553498.1119028797,
        "Argument of Periapsis(deg)": 0.02684054292236524,
        "Eccentricity": 0.0,
        "Inclination(deg)": 53.0,
        "Latitude(deg)": 13.635165715180493,
        "Longitude(deg)": -33.70060098033243,
        "Mean Anomaly(deg)": -197.18849732613293,
        "RAAN(deg)": 259.9600547040346,
        "Satellite Name": "Starlink Shell 1 1151",
        "Satellite Number": 1151,
        "Semi-Major Axis(m)": 6931778.249405717,
        "Time(s)": 770
    },
    {
        "Altitude(m)": 553490.2128641601,
        "Argument of Periapsis(deg)": 0.027189121401876473,
        "Eccentricity": 0.0,
        "Inclination(deg)": 53.0,
        "Latitude(deg)": 13.13940037811916,
        "Longitude(deg)": -33.34391201195356,
        "Mean Anomaly(deg)": -196.5616661225762,
        "RAAN(deg)": 259.9595359339571,
        "Satellite Name": "Starlink Shell 1 1151",
        "Satellite Number": 1151,
        "Semi-Major Axis(m)": 6931778.249405717,
        "Time(s)": 780
    },
    {
        "Altitude(m)": 553484.863688311,
        "Argument of Periapsis(deg)": 0.02753769988138771,
        "Eccentricity": 0.0,
        "Inclination(deg)": 53.0,
        "Latitude(deg)": 12.643007171819232,
        "Longitude(deg)": -32.98882023014267,
        "Mean Anomaly(deg)": -195.93483491901952,
        "RAAN(deg)": 259.95901716387965,
        "Satellite Name": "Starlink Shell 1 1151",
        "Satellite Number": 1151,
        "Semi-Major Axis(m)": 6931778.249405717,
        "Time(s)": 790
    },
    {
        "Altitude(m)": 553482.0897255618,
        "Argument of Periapsis(deg)": 0.02788627836089895,
        "Eccentricity": 0.0,
        "Inclination(deg)": 53.0,
        "Latitude(deg)": 12.146013157420729,
        "Longitude(deg)": -32.63525949744209,
        "Mean Anomaly(deg)": -195.30800371546275,
        "RAAN(deg)": 259.95849839380213,
        "Satellite Name": "Starlink Shell 1 1151",
        "Satellite Number": 1151,
        "Semi-Major Axis(m)": 6931778.249405717,
        "Time(s)": 800
    },
    {
        "Altitude(m)": 553481.9151507064,
        "Argument of Periapsis(deg)": 0.02823485684041019,
        "Eccentricity": 0.0,
        "Inclination(deg)": 53.0,
        "Latitude(deg)": 11.648445066677501,
        "Longitude(deg)": -32.28316433571637,
        "Mean Anomaly(deg)": -194.68117251190606,
        "RAAN(deg)": 259.9579796237247,
        "Satellite Name": "Starlink Shell 1 1151",
        "Satellite Number": 1151,
        "Semi-Major Axis(m)": 6931778.249405717,
        "Time(s)": 810
    },
    {
        "Altitude(m)": 553484.3629483695,
        "Argument of Periapsis(deg)": 0.028583435319921423,
        "Eccentricity": 0.0,
        "Inclination(deg)": 53.0,
        "Latitude(deg)": 11.150329317217796,
        "Longitude(deg)": -31.93246939497726,
        "Mean Anomaly(deg)": -194.05434130834934,
        "RAAN(deg)": 259.95746085364726,
        "Satellite Name": "Starlink Shell 1 1151",
        "Satellite Number": 1151,
        "Semi-Major Axis(m)": 6931778.249405717,
        "Time(s)": 820
    },
    {
        "Altitude(m)": 553489.4548988531,
        "Argument of Periapsis(deg)": 0.028932013799432665,
        "Eccentricity": 0.0,
        "Inclination(deg)": 53.0,
        "Latitude(deg)": 10.651692027515763,
        "Longitude(deg)": -31.583110435141943,
        "Mean Anomaly(deg)": -193.42751010479267,
        "RAAN(deg)": 259.95694208356974,
        "Satellite Name": "Starlink Shell 1 1151",
        "Satellite Number": 1151,
        "Semi-Major Axis(m)": 6931778.249405717,
        "Time(s)": 830
    },
    {
        "Altitude(m)": 553497.2115645587,
        "Argument of Periapsis(deg)": 0.029280592278943897,
        "Eccentricity": 0.0,
        "Inclination(deg)": 53.0,
        "Latitude(deg)": 10.15255903158934,
        "Longitude(deg)": -31.235023794987907,
        "Mean Anomaly(deg)": -192.80067890123595,
        "RAAN(deg)": 259.9564233134923,
        "Satellite Name": "Starlink Shell 1 1151",
        "Satellite Number": 1151,
        "Semi-Major Axis(m)": 6931778.249405717,
        "Time(s)": 840
    },
    {
        "Altitude(m)": 553507.6522770277,
        "Argument of Periapsis(deg)": 0.029629170758455132,
        "Eccentricity": 0.0,
        "Inclination(deg)": 53.0,
        "Latitude(deg)": 9.652955893436186,
        "Longitude(deg)": -30.888145861186153,
        "Mean Anomaly(deg)": -192.17384769767924,
        "RAAN(deg)": 259.9559045434148,
        "Satellite Name": "Starlink Shell 1 1151",
        "Satellite Number": 1151,
        "Semi-Major Axis(m)": 6931778.249405717,
        "Time(s)": 850
    },
    {
        "Altitude(m)": 553520.7951245594,
        "Argument of Periapsis(deg)": 0.02997774923796637,
        "Eccentricity": 0.0,
        "Inclination(deg)": 53.0,
        "Latitude(deg)": 9.152907921216345,
        "Longitude(deg)": -30.54241421838719,
        "Mean Anomaly(deg)": -191.5470164941225,
        "RAAN(deg)": 259.95538577333735,
        "Satellite Name": "Starlink Shell 1 1151",
        "Satellite Number": 1151,
        "Semi-Major Axis(m)": 6931778.249405717,
        "Time(s)": 860
    },
    {
        "Altitude(m)": 553536.6569404762,
        "Argument of Periapsis(deg)": 0.030326327717477602,
        "Eccentricity": 0.0,
        "Inclination(deg)": 53.0,
        "Latitude(deg)": 8.652440181201086,
        "Longitude(deg)": -30.19776627794079,
        "Mean Anomaly(deg)": -190.92018529056577,
        "RAAN(deg)": 259.9548670032599,
        "Satellite Name": "Starlink Shell 1 1151",
        "Satellite Number": 1151,
        "Semi-Major Axis(m)": 6931778.249405717,
        "Time(s)": 870
    },
    {
        "Altitude(m)": 553555.2532919749,
        "Argument of Periapsis(deg)": 0.030674906196988847,
        "Eccentricity": 0.0,
        "Inclination(deg)": 53.0,
        "Latitude(deg)": 8.151577511492473,
        "Longitude(deg)": -29.854140428162854,
        "Mean Anomaly(deg)": -190.29335408700908,
        "RAAN(deg)": 259.9543482331824,
        "Satellite Name": "Starlink Shell 1 1151",
        "Satellite Number": 1151,
        "Semi-Major Axis(m)": 6931778.249405717,
        "Time(s)": 880
    },
    {
        "Altitude(m)": 553576.598469618,
        "Argument of Periapsis(deg)": 0.031023484676500086,
        "Eccentricity": 0.0,
        "Inclination(deg)": 53.0,
        "Latitude(deg)": 7.65034453553152,
        "Longitude(deg)": -29.511475503724547,
        "Mean Anomaly(deg)": -189.66652288345227,
        "RAAN(deg)": 259.9538294631049,
        "Satellite Name": "Starlink Shell 1 1151",
        "Satellite Number": 1151,
        "Semi-Major Axis(m)": 6931778.249405717,
        "Time(s)": 890
    },
    {
        "Altitude(m)": 553600.7054774589,
        "Argument of Periapsis(deg)": 0.03137206315601132,
        "Eccentricity": 0.0,
        "Inclination(deg)": 53.0,
        "Latitude(deg)": 7.1487656754063575,
        "Longitude(deg)": -29.169710255137446,
        "Mean Anomaly(deg)": -189.03969167989567,
        "RAAN(deg)": 259.95331069302745,
        "Satellite Name": "Starlink Shell 1 1151",
        "Satellite Number": 1151,
        "Semi-Major Axis(m)": 6931778.249405717,
        "Time(s)": 900
    },
    {
        "Altitude(m)": 553627.5860237865,
        "Argument of Periapsis(deg)": 0.03172064163552255,
        "Eccentricity": 0.0,
        "Inclination(deg)": 53.0,
        "Latitude(deg)": 6.646865164966967,
        "Longitude(deg)": -28.828784331204314,
        "Mean Anomaly(deg)": -188.4128604763389,
        "RAAN(deg)": 259.95279192295,
        "Satellite Name": "Starlink Shell 1 1151",
        "Satellite Number": 1151,
        "Semi-Major Axis(m)": 6931778.249405717,
        "Time(s)": 910
    },
    {
        "Altitude(m)": 553657.2505125452,
        "Argument of Periapsis(deg)": 0.0320692201150338,
        "Eccentricity": 0.0,
        "Inclination(deg)": 53.0,
        "Latitude(deg)": 6.144667062767332,
        "Longitude(deg)": -28.48863774869096,
        "Mean Anomaly(deg)": -187.78602927278226,
        "RAAN(deg)": 259.95227315287246,
        "Satellite Name": "Starlink Shell 1 1151",
        "Satellite Number": 1151,
        "Semi-Major Axis(m)": 6931778.249405717,
        "Time(s)": 920
    },
    {
        "Altitude(m)": 553689.7080353617,
        "Argument of Periapsis(deg)": 0.032417798594545036,
        "Eccentricity": 0.0,
        "Inclination(deg)": 53.0,
        "Latitude(deg)": 5.642195264840504,
        "Longitude(deg)": -28.1492103620883,
        "Mean Anomaly(deg)": -187.1591980692255,
        "RAAN(deg)": 259.95175438279506,
        "Satellite Name": "Starlink Shell 1 1151",
        "Satellite Number": 1151,
        "Semi-Major Axis(m)": 6931778.249405717,
        "Time(s)": 930
    },
    {
        "Altitude(m)": 553724.9663642492,
        "Argument of Periapsis(deg)": 0.03276637707405627,
        "Eccentricity": 0.0,
        "Inclination(deg)": 53.0,
        "Latitude(deg)": 5.139473517318693,
        "Longitude(deg)": -27.810442846335793,
        "Mean Anomaly(deg)": -186.5323668656687,
        "RAAN(deg)": 259.9512356127176,
        "Satellite Name": "Starlink Shell 1 1151",
        "Satellite Number": 1151,
        "Semi-Major Axis(m)": 6931778.249405717,
        "Time(s)": 940
    }
]